[{"OBJECT_NAME":"STARLINK-36809","OBJECT_ID":"2026-036AB","EPOCH":"2026-03-04T20:00:03.000384","MEAN_MOTION":15.81958175,"ECCENTRICITY":0.0001947,"INCLINATION":42.9936,"RA_OF_ASC_NODE":279.3049,"ARG_OF_PERICENTER":260.247,"MEAN_ANOMALY":108.3933,"EPHEMERIS_TYPE":0,"CLASSIFICATION_TYPE":"U","NORAD_CAT_ID":67929,"ELEMENT_SET_NO":999,"REV_AT_EPOCH":286,"BSTAR":0.00044923,"MEAN_MOTION_DOT":0.00094847,"MEAN_MOTION_DDOT":0},{"OBJECT_NAME":"STARLINK-36865","OBJECT_ID":"2026-036AC","EPOCH":"2026-03-04T20:00:03.000384","MEAN_MOTION":15.82011711,"ECCENTRICITY":0.0002069,"INCLINATION":42.9935,"RA_OF_ASC_NODE":279.2832,"ARG_OF_PERICENTER":268.6945,"MEAN_ANOMALY":108.4778,"EPHEMERIS_TYPE":0,"CLASSIFICATION_TYPE":"U","NORAD_CAT_ID":67930,"ELEMENT_SET_NO":999,"REV_AT_EPOCH":286,"BSTAR":-7.3933e-5,"MEAN_MOTION_DOT":-0.0001607,"MEAN_MOTION_DDOT":0},{"OBJECT_NAME":"STARLINK-36781","OBJECT_ID":"2026-036AD","EPOCH":"2026-03-04T20:00:03.000384","MEAN_MOTION":15.81987471,"ECCENTRICITY":0.0001637,"INCLINATION":42.9935,"RA_OF_ASC_NODE":279.2941,"ARG_OF_PERICENTER":276.261,"MEAN_ANOMALY":96.6487,"EPHEMERIS_TYPE":0,"CLASSIFICATION_TYPE":"U","NORAD_CAT_ID":67931,"ELEMENT_SET_NO":999,"REV_AT_EPOCH":286,"BSTAR":9.5078e-5,"MEAN_MOTION_DOT":0.00019506,"MEAN_MOTION_DDOT":0},{"OBJECT_NAME":"STARLINK-36301","OBJECT_ID":"2026-037A","EPOCH":"2026-03-04T20:00:03.000384","MEAN_MOTION":15.94116319,"ECCENTRICITY":0.0001433,"INCLINATION":42.9999,"RA_OF_ASC_NODE":228.5626,"ARG_OF_PERICENTER":279.8211,"MEAN_ANOMALY":291.9216,"EPHEMERIS_TYPE":0,"CLASSIFICATION_TYPE":"U","NORAD_CAT_ID":67932,"ELEMENT_SET_NO":999,"REV_AT_EPOCH":232,"BSTAR":-0.0038723,"MEAN_MOTION_DOT":-0.01484538,"MEAN_MOTION_DDOT":0.00063564},{"OBJECT_NAME":"STARLINK-36852","OBJECT_ID":"2026-037B","EPOCH":"2026-03-04T20:00:03.000384","MEAN_MOTION":15.94245121,"ECCENTRICITY":0.000116,"INCLINATION":43.0001,"RA_OF_ASC_NODE":228.5577,"ARG_OF_PERICENTER":278.4103,"MEAN_ANOMALY":295.2172,"EPHEMERIS_TYPE":0,"CLASSIFICATION_TYPE":"U","NORAD_CAT_ID":67933,"ELEMENT_SET_NO":999,"REV_AT_EPOCH":241,"BSTAR":-0.0038023,"MEAN_MOTION_DOT":-0.01467934,"MEAN_MOTION_DDOT":0.00062345},{"OBJECT_NAME":"STARLINK-36861","OBJECT_ID":"2026-037C","EPOCH":"2026-03-04T20:00:03.000384","MEAN_MOTION":15.94374565,"ECCENTRICITY":0.0001301,"INCLINATION":43,"RA_OF_ASC_NODE":228.5516,"ARG_OF_PERICENTER":281.8405,"MEAN_ANOMALY":294.343,"EPHEMERIS_TYPE":0,"CLASSIFICATION_TYPE":"U","NORAD_CAT_ID":67934,"ELEMENT_SET_NO":999,"REV_AT_EPOCH":241,"BSTAR":-0.0037693,"MEAN_MOTION_DOT":-0.01465355,"MEAN_MOTION_DDOT":0.00062224},{"OBJECT_NAME":"STARLINK-36860","OBJECT_ID":"2026-037D","EPOCH":"2026-03-04T20:00:03.000384","MEAN_MOTION":15.94509331,"ECCENTRICITY":0.0001437,"INCLINATION":42.9999,"RA_OF_ASC_NODE":228.5451,"ARG_OF_PERICENTER":280.9167,"MEAN_ANOMALY":297.9226,"EPHEMERIS_TYPE":0,"CLASSIFICATION_TYPE":"U","NORAD_CAT_ID":67935,"ELEMENT_SET_NO":999,"REV_AT_EPOCH":241,"BSTAR":-0.0037792,"MEAN_MOTION_DOT":-0.01479684,"MEAN_MOTION_DDOT":0.00063431},{"OBJECT_NAME":"STARLINK-36848","OBJECT_ID":"2026-037E","EPOCH":"2026-03-04T20:00:03.000384","MEAN_MOTION":15.9476955,"ECCENTRICITY":0.000135,"INCLINATION":42.9999,"RA_OF_ASC_NODE":228.5318,"ARG_OF_PERICENTER":280.8762,"MEAN_ANOMALY":302.9788,"EPHEMERIS_TYPE":0,"CLASSIFICATION_TYPE":"U","NORAD_CAT_ID":67936,"ELEMENT_SET_NO":999,"REV_AT_EPOCH":241,"BSTAR":-0.0037354,"MEAN_MOTION_DOT":-0.01483061,"MEAN_MOTION_DDOT":0.00063863},{"OBJECT_NAME":"STARLINK-36370","OBJECT_ID":"2026-037F","EPOCH":"2026-03-04T20:00:03.000384","MEAN_MOTION":15.9463602,"ECCENTRICITY":0.0001492,"INCLINATION":43.0002,"RA_OF_ASC_NODE":228.5383,"ARG_OF_PERICENTER":278.335,"MEAN_ANOMALY":303.2085,"EPHEMERIS_TYPE":0,"CLASSIFICATION_TYPE":"U","NORAD_CAT_ID":67937,"ELEMENT_SET_NO":999,"REV_AT_EPOCH":241,"BSTAR":-0.0037463,"MEAN_MOTION_DOT":-0.01476867,"MEAN_MOTION_DDOT":0.0006329},{"OBJECT_NAME":"STARLINK-36371","OBJECT_ID":"2026-037G","EPOCH":"2026-03-04T20:00:03.000384","MEAN_MOTION":15.94903637,"ECCENTRICITY":0.0001345,"INCLINATION":43.0001,"RA_OF_ASC_NODE":228.5263,"ARG_OF_PERICENTER":277.954,"MEAN_ANOMALY":307.9989,"EPHEMERIS_TYPE":0,"CLASSIFICATION_TYPE":"U","NORAD_CAT_ID":67938,"ELEMENT_SET_NO":999,"REV_AT_EPOCH":241,"BSTAR":-0.0037117,"MEAN_MOTION_DOT":-0.01484295,"MEAN_MOTION_DDOT":0.00064047},{"OBJECT_NAME":"STARLINK-36246","OBJECT_ID":"2026-037H","EPOCH":"2026-03-04T20:00:03.000384","MEAN_MOTION":15.95027806,"ECCENTRICITY":0.0001439,"INCLINATION":43.0001,"RA_OF_ASC_NODE":228.5216,"ARG_OF_PERICENTER":277.5933,"MEAN_ANOMALY":310.4488,"EPHEMERIS_TYPE":0,"CLASSIFICATION_TYPE":"U","NORAD_CAT_ID":67939,"ELEMENT_SET_NO":999,"REV_AT_EPOCH":232,"BSTAR":-0.0036562,"MEAN_MOTION_DOT":-0.01472109,"MEAN_MOTION_DDOT":0.00063164},{"OBJECT_NAME":"STARLINK-36907","OBJECT_ID":"2026-037J","EPOCH":"2026-03-04T20:00:03.000384","MEAN_MOTION":15.95409952,"ECCENTRICITY":0.0001287,"INCLINATION":43,"RA_OF_ASC_NODE":228.5029,"ARG_OF_PERICENTER":273.6281,"MEAN_ANOMALY":321.3992,"EPHEMERIS_TYPE":0,"CLASSIFICATION_TYPE":"U","NORAD_CAT_ID":67940,"ELEMENT_SET_NO":999,"REV_AT_EPOCH":241,"BSTAR":-0.0035678,"MEAN_MOTION_DOT":-0.01466519,"MEAN_MOTION_DDOT":0.00062966},{"OBJECT_NAME":"STARLINK-36927","OBJECT_ID":"2026-037K","EPOCH":"2026-03-04T20:00:03.000384","MEAN_MOTION":15.95660248,"ECCENTRICITY":0.0001425,"INCLINATION":42.9999,"RA_OF_ASC_NODE":228.4919,"ARG_OF_PERICENTER":273.014,"MEAN_ANOMALY":326.4164,"EPHEMERIS_TYPE":0,"CLASSIFICATION_TYPE":"U","NORAD_CAT_ID":67941,"ELEMENT_SET_NO":999,"REV_AT_EPOCH":241,"BSTAR":-0.0035106,"MEAN_MOTION_DOT":-0.01462802,"MEAN_MOTION_DDOT":0.00062833},{"OBJECT_NAME":"STARLINK-36914","OBJECT_ID":"2026-037L","EPOCH":"2026-03-04T20:00:03.000384","MEAN_MOTION":15.95158075,"ECCENTRICITY":0.0001226,"INCLINATION":43.0001,"RA_OF_ASC_NODE":228.514,"ARG_OF_PERICENTER":277.0397,"MEAN_ANOMALY":313.8043,"EPHEMERIS_TYPE":0,"CLASSIFICATION_TYPE":"U","NORAD_CAT_ID":67942,"ELEMENT_SET_NO":999,"REV_AT_EPOCH":241,"BSTAR":-0.0036541,"MEAN_MOTION_DOT":-0.01481456,"MEAN_MOTION_DDOT":0.00063986},{"OBJECT_NAME":"STARLINK-36851","OBJECT_ID":"2026-037M","EPOCH":"2026-03-04T20:00:03.000384","MEAN_MOTION":15.95282062,"ECCENTRICITY":0.0001349,"INCLINATION":43.0001,"RA_OF_ASC_NODE":228.5088,"ARG_OF_PERICENTER":280.253,"MEAN_ANOMALY":312.7107,"EPHEMERIS_TYPE":0,"CLASSIFICATION_TYPE":"U","NORAD_CAT_ID":67943,"ELEMENT_SET_NO":999,"REV_AT_EPOCH":241,"BSTAR":-0.0036087,"MEAN_MOTION_DOT":-0.01473033,"MEAN_MOTION_DDOT":0.00063399},{"OBJECT_NAME":"STARLINK-36892","OBJECT_ID":"2026-037N","EPOCH":"2026-03-04T20:00:03.000384","MEAN_MOTION":15.95539681,"ECCENTRICITY":0.0001402,"INCLINATION":42.9999,"RA_OF_ASC_NODE":228.4981,"ARG_OF_PERICENTER":278.421,"MEAN_ANOMALY":318.7942,"EPHEMERIS_TYPE":0,"CLASSIFICATION_TYPE":"U","NORAD_CAT_ID":67944,"ELEMENT_SET_NO":999,"REV_AT_EPOCH":241,"BSTAR":-0.0035632,"MEAN_MOTION_DOT":-0.01474904,"MEAN_MOTION_DDOT":0.00063712}]
